NORAD_CAT_ID,OBJECT_NAME,OBJECT_TYPE,EPOCH,MEAN_MOTION,ECCENTRICITY,INCLINATION,RA_OF_ASC_NODE,ARG_OF_PERICENTER,MEAN_ANOMALY,BSTAR,MEAN_MOTION_DOT,MEAN_MOTION_DDOT,TLE_LINE0,TLE_LINE1,TLE_LINE2,SEMIMAJOR_AXIS,PERIOD,APOGEE,PERIGEE,DECAYED
54056.0,STARLINK-5226,PAYLOAD,2023-09-10 00:49:56,15.08824602,0.0001355,53.2167,116.7965,90.1045,270.0103,0.00010746,1.422e-05,0.0,0 STARLINK-5226,1 54056U 22136F   23253.03468502  .00001422  00000-0  10746-3 0  9997,2 54056  53.2167 116.7965 0001355  90.1045 270.0103 15.08824602 49691,6917.927,95.439,540.73,538.855,0.0
54056.0,STARLINK-5226,PAYLOAD,2023-09-11 00:40:44,15.08836691,0.0001521,53.2171,112.3354,92.7894,267.3273,-2.6624e-05,-7.12e-06,0.0,0 STARLINK-5226,1 54056U 22136F   23254.02828997 -.00000712  00000-0 -26624-4 0  9991,2 54056  53.2171 112.3354 0001521  92.7894 267.3273 15.08836691 49840,6917.891,95.438,540.808,538.703,0.0
54056.0,STARLINK-5226,PAYLOAD,2023-09-12 00:31:31,15.08840785,0.0001265,53.2167,107.8754,88.6296,271.4841,0.0001024,1.342e-05,0.0,0 STARLINK-5226,1 54056U 22136F   23255.02188706  .00001342  00000-0  10240-3 0  9993,2 54056  53.2167 107.8754 0001265  88.6296 271.4841 15.08840785 49513,6917.878,95.438,540.618,538.868,0.0
54056.0,STARLINK-5226,PAYLOAD,2023-09-12 18:00:46,15.08837018,0.0001347,53.2167,104.6043,103.1503,256.9639,5.8831e-05,6.48e-06,0.0,0 STARLINK-5226,1 54056U 22136F   23255.75053444  .00000648  00000-0  58831-4 0  9990,2 54056  53.2167 104.6043 0001347 103.1503 256.9639 15.08837018 50109,6917.89,95.438,540.686,538.823,0.0
54056.0,STARLINK-5226,PAYLOAD,2023-09-12 21:11:31,15.08851284,0.0001409,53.2164,104.0101,95.7068,264.4085,0.00018046,2.586e-05,0.0,0 STARLINK-5226,1 54056U 22136F   23255.88300262  .00002586  00000-0  18046-3 0  9993,2 54056  53.2164 104.0101 0001409  95.7068 264.4085 15.08851284 49643,6917.846,95.437,540.686,538.736,0.0
54056.0,STARLINK-5226,PAYLOAD,2023-09-13 17:51:32,15.08852216,0.0001109,53.2147,100.1439,89.6605,270.4514,3.7826e-05,3.14e-06,0.0,0 STARLINK-5226,1 54056U 22136F   23256.74412616  .00000314  00000-0  37826-4 0  9991,2 54056  53.2147 100.1439 0001109  89.6605 270.4514 15.08852216 50250,6917.843,95.437,540.475,538.941,0.0
54056.0,STARLINK-5226,PAYLOAD,2023-09-13 21:02:18,15.08851029,0.0001269,53.2165,99.5489,75.5257,284.5875,8.9849e-05,1.143e-05,0.0,0 STARLINK-5226,1 54056U 22136F   23256.87660457  .00001143  00000-0  89849-4 0  9996,2 54056  53.2165  99.5489 0001269  75.5257 284.5875 15.08851029 49794,6917.847,95.437,540.59,538.834,0.0
54056.0,STARLINK-5226,PAYLOAD,2023-09-14 12:56:11,15.08828627,0.0001167,53.2155,96.5725,117.8002,242.3109,-7.2456e-06,-4.03e-06,0.0,0 STARLINK-5226,1 54056U 22136F   23257.53902080 -.00000403  00000-0 -72456-5 0  9998,2 54056  53.2155  96.5725 0001167 117.8002 242.3109 15.08828627 49899,6917.915,95.438,540.587,538.973,0.0
54056.0,STARLINK-5226,PAYLOAD,2023-09-14 20:53:06,15.08833931,0.0001242,53.216,95.0867,110.8452,249.2673,-5.0193e-06,-3.68e-06,0.0,0 STARLINK-5226,1 54056U 22136F   23257.87021851 -.00000368  00000-0 -50193-5 0  9997,2 54056  53.2160  95.0867 0001242 110.8452 249.2673 15.08833931 49944,6917.899,95.438,540.623,538.905,0.0
54056.0,STARLINK-5226,PAYLOAD,2023-09-15 12:46:58,15.08843638,0.0001264,53.2164,92.1126,128.5379,231.5726,-6.7789e-05,-1.367e-05,0.0,0 STARLINK-5226,1 54056U 22136F   23258.53261631 -.00001367  00000-0 -67789-4 0  9991,2 54056  53.2164  92.1126 0001264 128.5379 231.5726 15.08843638 50043,6917.869,95.437,540.609,538.86,0.0
54056.0,STARLINK-5226,PAYLOAD,2023-09-15 17:33:07,15.0884725,0.0001164,53.2168,91.2233,93.1879,266.9247,3.2615e-06,-2.36e-06,0.0,0 STARLINK-5226,1 54056U 22136F   23258.73133236 -.00000236  00000-0  32615-5 0  9996,2 54056  53.2168  91.2233 0001164  93.1879 266.9247 15.08847250 50557,6917.858,95.437,540.528,538.918,0.0
54056.0,STARLINK-5226,PAYLOAD,2023-09-16 12:37:45,15.08833624,0.000117,53.2165,87.655,98.3394,261.7731,0.00014115,1.959e-05,0.0,0 STARLINK-5226,1 54056U 22136F   23259.52621753  .00001959  00000-0  14115-3 0  9995,2 54056  53.2165  87.6550 0001170  98.3394 261.7731 15.08833624 50192,6917.9,95.438,540.574,538.955,0.0
54056.0,STARLINK-5226,PAYLOAD,2023-09-16 17:23:54,15.08836268,0.0001162,53.2167,86.763,97.7998,262.3126,0.00010604,1.4e-05,0.0,0 STARLINK-5226,1 54056U 22136F   23259.72493779  .00001400  00000-0  10604-3 0  9992,2 54056  53.2167  86.7630 0001162  97.7998 262.3126 15.08836268 50706,6917.892,95.438,540.561,538.953,0.0
54056.0,STARLINK-5226,PAYLOAD,2023-09-17 12:28:32,15.08842286,0.0001442,53.2182,83.1938,106.3929,253.7222,5.2981e-05,5.55e-06,0.0,0 STARLINK-5226,1 54056U 22136F   23260.51981690  .00000555  00000-0  52981-4 0  9990,2 54056  53.2182  83.1938 0001442 106.3929 253.7222 15.08842286 50345,6917.873,95.437,540.736,538.741,0.0
54056.0,STARLINK-5226,PAYLOAD,2023-09-17 18:50:04,15.08848804,0.0001257,53.2176,82.0042,98.3771,261.7364,5.2073e-05,5.41e-06,0.0,0 STARLINK-5226,1 54056U 22136F   23260.78477186  .00000541  00000-0  52073-4 0  9996,2 54056  53.2176  82.0042 0001257  98.3771 261.7364 15.08848804 50866,6917.853,95.437,540.588,538.849,0.0
54056.0,STARLINK-5226,PAYLOAD,2023-09-17 22:00:50,15.08848676,0.0001201,53.2175,81.4092,101.4967,258.616,0.00010623,1.404e-05,0.0,0 STARLINK-5226,1 54056U 22136F   23260.91725069  .00001404  00000-0  10623-3 0  9990,2 54056  53.2175  81.4092 0001201 101.4967 258.6160 15.08848676 50401,6917.854,95.437,540.55,538.888,0.0
54056.0,STARLINK-5226,PAYLOAD,2023-09-18 17:05:28,15.08839101,0.0001354,53.2176,77.8415,98.9181,261.1964,6.3856e-05,7.28e-06,0.0,0 STARLINK-5226,1 54056U 22136F   23261.71213819  .00000728  00000-0  63856-4 0  9999,2 54056  53.2176  77.8415 0001354  98.9181 261.1964 15.08839101 51008,6917.883,95.438,540.685,538.811,0.0
54056.0,STARLINK-5226,PAYLOAD,2023-09-18 20:16:14,15.08843471,0.0001279,53.2175,77.2461,93.4139,266.6999,7.9815e-05,9.83e-06,0.0,0 STARLINK-5226,1 54056U 22136F   23261.84461550  .00000983  00000-0  79815-4 0  9995,2 54056  53.2175  77.2461 0001279  93.4139 266.6999 15.08843471 50542,6917.87,95.437,540.62,538.85,0.0
54056.0,STARLINK-5226,PAYLOAD,2023-09-19 18:31:38,15.08848144,0.0001318,53.2176,73.0856,92.6771,267.4372,9.6501e-05,1.249e-05,0.0,0 STARLINK-5226,1 54056U 22136F   23262.77197231  .00001249  00000-0  96501-4 0  9997,2 54056  53.2176  73.0856 0001318  92.6771 267.4372 15.08848144 51167,6917.855,95.437,540.632,538.809,0.0
54056.0,STARLINK-5226,PAYLOAD,2023-09-20 12:00:54,15.0882453,9.58e-05,53.2174,69.8136,81.6278,278.4823,-0.00015229,-2.71e-05,0.0,0 STARLINK-5226,1 54056U 22136F   23263.50062616 -.00002710  00000-0 -15229-3 0  9990,2 54056  53.2174  69.8136 0000958  81.6278 278.4823 15.08824530 51276,6917.928,95.439,540.455,539.13,0.0
54056.0,STARLINK-5226,PAYLOAD,2023-09-20 18:22:26,15.08830867,0.0001274,53.2174,68.6241,97.6614,262.4522,-6.1564e-05,-1.267e-05,0.0,0 STARLINK-5226,1 54056U 22136F   23263.76558442 -.00001267  00000-0 -61564-4 0  9995,2 54056  53.2174  68.6241 0001274  97.6614 262.4522 15.08830867 51317,6917.908,95.438,540.655,538.892,0.0
54056.0,STARLINK-5226,PAYLOAD,2023-09-21 11:51:41,15.08835898,0.0001243,53.2173,65.3524,94.0313,266.0821,8.1349e-05,1.007e-05,0.0,0 STARLINK-5226,1 54056U 22136F   23264.49422614  .00001007  00000-0  81349-4 0  9990,2 54056  53.2173  65.3524 0001243  94.0313 266.0821 15.08835898 50946,6917.893,95.438,540.618,538.898,0.0
54056.0,STARLINK-5226,PAYLOAD,2023-09-21 18:13:13,15.08843409,0.0001151,53.2165,64.1627,92.0698,268.0426,0.00025915,3.839e-05,0.0,0 STARLINK-5226,1 54056U 22136F   23264.75918438  .00003839  00000-0  25915-3 0  9994,2 54056  53.2165  64.1627 0001151  92.0698 268.0426 15.08843409 51468,6917.87,95.437,540.531,538.939,0.0
54056.0,STARLINK-5226,PAYLOAD,2023-09-22 10:07:04,15.0884879,0.0001104,53.216,61.1892,84.8439,275.2679,0.00040749,6.205e-05,0.0,0 STARLINK-5226,1 54056U 22136F   23265.42158430  .00006205  00000-0  40749-3 0  9999,2 54056  53.2160  61.1892 0001104  84.8439 275.2679 15.08848790 51080,6917.854,95.437,540.482,538.955,0.0
54056.0,STARLINK-5226,PAYLOAD,2023-09-22 18:04:00,15.08856813,0.0001182,53.2166,59.7025,83.2365,276.8762,0.00054128,8.341e-05,0.0,0 STARLINK-5226,1 54056U 22136F   23265.75278129  .00008341  00000-0  54128-3 0  9992,2 54056  53.2166  59.7025 0001182  83.2365 276.8762 15.08856813 51135,6917.829,95.436,540.512,538.876,0.0
54056.0,STARLINK-5226,PAYLOAD,2023-09-23 03:36:19,15.0885239,0.0001216,53.2169,57.9185,85.1264,274.9867,0.00029798,4.459e-05,0.0,0 STARLINK-5226,1 54056U 22136F   23266.15022024  .00004459  00000-0  29798-3 0  9999,2 54056  53.2169  57.9185 0001216  85.1264 274.9867 15.08852390 51672,6917.843,95.437,540.549,538.866,0.0
54056.0,STARLINK-5226,PAYLOAD,2023-09-23 16:19:24,15.08842359,0.0001172,53.2167,55.5389,93.1428,266.9698,2.4042e-05,9.5e-07,0.0,0 STARLINK-5226,1 54056U 22136F   23266.68014114  .00000095  00000-0  24042-4 0  9998,2 54056  53.2167  55.5389 0001172  93.1428 266.9698 15.08842359 51758,6917.873,95.437,540.549,538.927,0.0
54056.0,STARLINK-5226,PAYLOAD,2023-09-24 12:59:24,15.08843758,0.0001238,53.2171,51.673,97.5647,262.5486,0.0001311,1.799e-05,0.0,0 STARLINK-5226,1 54056U 22136F   23267.54126132  .00001799  00000-0  13110-3 0  9993,2 54056  53.2171  51.6730 0001238  97.5647 262.5486 15.08843758 51407,6917.869,95.437,540.59,538.877,0.0
54056.0,STARLINK-5226,PAYLOAD,2023-09-24 19:20:57,15.0885079,0.0001403,53.2176,50.4838,84.6058,275.5094,0.00022319,3.267e-05,0.0,0 STARLINK-5226,1 54056U 22136F   23267.80621779  .00003267  00000-0  22319-3 0  9992,2 54056  53.2176  50.4838 0001403  84.6058 275.5094 15.08850790 51925,6917.847,95.437,540.683,538.742,0.0
54056.0,STARLINK-5226,PAYLOAD,2023-09-25 09:39:25,15.08844221,0.0001447,53.2174,47.8016,121.0607,239.0528,0.00019732,2.854e-05,0.0,0 STARLINK-5226,1 54056U 22136F   23268.40238064  .00002854  00000-0  19732-3 0  9996,2 54056  53.2174  47.8016 0001447 121.0607 239.0528 15.08844221 52015,6917.867,95.437,540.734,538.731,0.0
